{
  "type": "FeatureCollection",
  "features": [
    {
      "type": "Feature",
      "properties": {
        "norad_id": 33913,
        "name": "COSMOS 2251 DEB",
        "group": "cosmos-2251-debris",
        "lat": -54.305839009625984,
        "lon": 26.197963066330352,
        "alt_km": 714.0448327556751,
        "timestamp": "2025-12-13T05:42:57.965082+00:00",
        "meta_object_name": "COSMOS 2251 DEB",
        "meta_object_id": "1993-036DS",
        "meta_epoch": "2025-12-11T23:20:27.461184",
        "meta_mean_motion": 14.48481085,
        "meta_eccentricity": 0.0048161,
        "meta_inclination": 74.0334,
        "meta_ra_of_asc_node": 185.0828,
        "meta_arg_of_pericenter": 287.795,
        "meta_mean_anomaly": 193.1855,
        "meta_ephemeris_type": 0,
        "meta_classification_type": "U",
        "meta_norad_cat_id": 33913,
        "meta_element_set_no": 999,
        "meta_rev_at_epoch": 88446,
        "meta_bstar": 0.00081494,
        "meta_mean_motion_dot": 3.075e-05,
        "meta_mean_motion_ddot": 0,
        "tle_line1": "1 33913U 93036DS  25345.97254006  .00003075  00000+0  81494-3 0  9995",
        "tle_line2": "2 33913  74.0334 185.0828 0048161 287.7950 193.1855 14.48481085884467"
      },
      "geometry": {
        "type": "Point",
        "coordinates": [
          26.197963066330352,
          -54.305839009625984
        ]
      }
    },
    {
      "type": "Feature",
      "properties": {
        "norad_id": 33914,
        "name": "COSMOS 2251 DEB",
        "group": "cosmos-2251-debris",
        "lat": 60.19923273633156,
        "lon": 44.139174090006414,
        "alt_km": 847.501261221144,
        "timestamp": "2025-12-13T05:42:57.965092+00:00",
        "meta_object_name": "COSMOS 2251 DEB",
        "meta_object_id": "1993-036DT",
        "meta_epoch": "2025-12-12T03:25:46.704288",
        "meta_mean_motion": 13.71984802,
        "meta_eccentricity": 0.03012248,
        "meta_inclination": 74.0915,
        "meta_ra_of_asc_node": 16.0785,
        "meta_arg_of_pericenter": 119.2639,
        "meta_mean_anomaly": 300.321,
        "meta_ephemeris_type": 0,
        "meta_classification_type": "U",
        "meta_norad_cat_id": 33914,
        "meta_element_set_no": 999,
        "meta_rev_at_epoch": 84073,
        "meta_bstar": 0.00056313627,
        "meta_mean_motion_dot": 6.87e-06,
        "meta_mean_motion_ddot": 0,
        "tle_line1": "1 33914U 93036DT  25346.14290167  .00000687  00000+0  56314-3 0  9993",
        "tle_line2": "2 33914  74.0915  16.0785 0301224 119.2639 300.3210 13.71984802840732"
      },
      "geometry": {
        "type": "Point",
        "coordinates": [
          44.139174090006414,
          60.19923273633156
        ]
      }
    },
    {
      "type": "Feature",
      "properties": {
        "norad_id": 33915,
        "name": "COSMOS 2251 DEB",
        "group": "cosmos-2251-debris",
        "lat": -54.765956703523045,
        "lon": 9.300193592205,
        "alt_km": 855.9984947481707,
        "timestamp": "2025-12-13T05:42:57.965103+00:00",
        "meta_object_name": "COSMOS 2251 DEB",
        "meta_object_id": "1993-036DU",
        "meta_epoch": "2025-12-12T05:09:38.203200",
        "meta_mean_motion": 14.35082246,
        "meta_eccentricity": 0.01044307,
        "meta_inclination": 74.0444,
        "meta_ra_of_asc_node": 35.0686,
        "meta_arg_of_pericenter": 127.7692,
        "meta_mean_anomaly": 290.2991,
        "meta_ephemeris_type": 0,
        "meta_classification_type": "U",
        "meta_norad_cat_id": 33915,
        "meta_element_set_no": 999,
        "meta_rev_at_epoch": 87750,
        "meta_bstar": 0.00062738501,
        "meta_mean_motion_dot": 1.878e-05,
        "meta_mean_motion_ddot": 0,
        "tle_line1": "1 33915U 93036DU  25346.21502550  .00001878  00000+0  62739-3 0  9995",
        "tle_line2": "2 33915  74.0444  35.0686 0104430 127.7692 290.2991 14.35082246877504"
      },
      "geometry": {
        "type": "Point",
        "coordinates": [
          9.300193592205,
          -54.765956703523045
        ]
      }
    },
    {
      "type": "Feature",
      "properties": {
        "norad_id": 33916,
        "name": "COSMOS 2251 DEB",
        "group": "cosmos-2251-debris",
        "lat": -28.52264878297828,
        "lon": 30.83110098874349,
        "alt_km": 1118.5624284309433,
        "timestamp": "2025-12-13T05:42:57.965113+00:00",
        "meta_object_name": "COSMOS 2251 DEB",
        "meta_object_id": "1993-036DV",
        "meta_epoch": "2025-12-12T07:27:37.497024",
        "meta_mean_motion": 13.68613338,
        "meta_eccentricity": 0.03253391,
        "meta_inclination": 74.0528,
        "meta_ra_of_asc_node": 41.2934,
        "meta_arg_of_pericenter": 213.5255,
        "meta_mean_anomaly": 226.2964,
        "meta_ephemeris_type": 0,
        "meta_classification_type": "U",
        "meta_norad_cat_id": 33916,
        "meta_element_set_no": 999,
        "meta_rev_at_epoch": 83885,
        "meta_bstar": 0.00067485867,
        "meta_mean_motion_dot": 8.15e-06,
        "meta_mean_motion_ddot": 0,
        "tle_line1": "1 33916U 93036DV  25346.31085066  .00000815  00000+0  67486-3 0  9999",
        "tle_line2": "2 33916  74.0528  41.2934 0325339 213.5255 226.2964 13.68613338838856"
      },
      "geometry": {
        "type": "Point",
        "coordinates": [
          30.83110098874349,
          -28.52264878297828
        ]
      }
    },
    {
      "type": "Feature",
      "properties": {
        "norad_id": 33917,
        "name": "COSMOS 2251 DEB",
        "group": "cosmos-2251-debris",
        "lat": 41.99890265107536,
        "lon": 136.4401992967837,
        "alt_km": 1242.4415175289641,
        "timestamp": "2025-12-13T05:42:57.965123+00:00",
        "meta_object_name": "COSMOS 2251 DEB",
        "meta_object_id": "1993-036DW",
        "meta_epoch": "2025-12-12T03:11:17.369088",
        "meta_mean_motion": 13.69357688,
        "meta_eccentricity": 0.03312639,
        "meta_inclination": 74.1068,
        "meta_ra_of_asc_node": 123.3884,
        "meta_arg_of_pericenter": 224.4791,
        "meta_mean_anomaly": 132.9296,
        "meta_ephemeris_type": 0,
        "meta_classification_type": "U",
        "meta_norad_cat_id": 33917,
        "meta_element_set_no": 999,
        "meta_rev_at_epoch": 83725,
        "meta_bstar": 0.0010791177,
        "meta_mean_motion_dot": 1.355e-05,
        "meta_mean_motion_ddot": 0,
        "tle_line1": "1 33917U 93036DW  25346.13283992  .00001355  00000+0  10791-2 0  9994",
        "tle_line2": "2 33917  74.1068 123.3884 0331263 224.4791 132.9296 13.69357688837250"
      },
      "geometry": {
        "type": "Point",
        "coordinates": [
          136.4401992967837,
          41.99890265107536
        ]
      }
    },
    {
      "type": "Feature",
      "properties": {
        "norad_id": 33920,
        "name": "COSMOS 2251 DEB",
        "group": "cosmos-2251-debris",
        "lat": -67.93513542988894,
        "lon": -107.34874543302736,
        "alt_km": 679.8760352588133,
        "timestamp": "2025-12-13T05:42:57.965134+00:00",
        "meta_object_name": "COSMOS 2251 DEB",
        "meta_object_id": "1993-036DZ",
        "meta_epoch": "2025-12-11T22:46:20.793792",
        "meta_mean_motion": 14.58254573,
        "meta_eccentricity": 0.003829,
        "meta_inclination": 74.0615,
        "meta_ra_of_asc_node": 299.9305,
        "meta_arg_of_pericenter": 306.5878,
        "meta_mean_anomaly": 53.1766,
        "meta_ephemeris_type": 0,
        "meta_classification_type": "U",
        "meta_norad_cat_id": 33920,
        "meta_element_set_no": 999,
        "meta_rev_at_epoch": 88103,
        "meta_bstar": 0.0029367,
        "meta_mean_motion_dot": 0.00013703,
        "meta_mean_motion_ddot": 0,
        "tle_line1": "1 33920U 93036DZ  25345.94885178  .00013703  00000+0  29367-2 0  9999",
        "tle_line2": "2 33920  74.0615 299.9305 0038290 306.5878  53.1766 14.58254573881030"
      },
      "geometry": {
        "type": "Point",
        "coordinates": [
          -107.34874543302736,
          -67.93513542988894
        ]
      }
    },
    {
      "type": "Feature",
      "properties": {
        "norad_id": 33922,
        "name": "COSMOS 2251 DEB",
        "group": "cosmos-2251-debris",
        "lat": 49.13757052710038,
        "lon": 166.13848864732444,
        "alt_km": 737.3938669825302,
        "timestamp": "2025-12-13T05:42:57.965145+00:00",
        "meta_object_name": "COSMOS 2251 DEB",
        "meta_object_id": "1993-036EB",
        "meta_epoch": "2025-12-11T22:43:59.164320",
        "meta_mean_motion": 14.49502228,
        "meta_eccentricity": 0.0023269,
        "meta_inclination": 74.0467,
        "meta_ra_of_asc_node": 149.2491,
        "meta_arg_of_pericenter": 259.9764,
        "meta_mean_anomaly": 258.0846,
        "meta_ephemeris_type": 0,
        "meta_classification_type": "U",
        "meta_norad_cat_id": 33922,
        "meta_element_set_no": 999,
        "meta_rev_at_epoch": 88566,
        "meta_bstar": 0.00075079,
        "meta_mean_motion_dot": 2.861e-05,
        "meta_mean_motion_ddot": 0,
        "tle_line1": "1 33922U 93036EB  25345.94721255  .00002861  00000+0  75079-3 0  9991",
        "tle_line2": "2 33922  74.0467 149.2491 0023269 259.9764 258.0846 14.49502228885666"
      },
      "geometry": {
        "type": "Point",
        "coordinates": [
          166.13848864732444,
          49.13757052710038
        ]
      }
    }
  ]
}